1 47524U 21006DQ  21054.12407896  .00001439  00000-0  88390-4 0  9999
2 47524  97.5005 117.2599 0010665 146.9421 213.2478 15.11615930  4765
1 47467U 21006BG  21053.86075148  .00001393  00000-0  85861-4 0  9995
2 47467  97.4995 116.9939 0010666 149.8091 210.3756 15.11539090  4723
1 47463U 21006BC  21053.86202839  .00001407  00000-0  86849-4 0  9993
2 47463  97.4990 116.9904 0010605 151.3085 208.8730 15.11473292  4725
